#dP2024  7  1  0  0  0.00000000      96 __u+U IGS20 EXT  IAC
## 2321  86400.00000000   900.00000000 60492 0.0000000000000
+   54   G02G03G04G05G06G07G08G09G10G11G12G13G14G15G16G17G18
+        G19G20G21G22G23G24G25G26G27G28G29G30G31G32R01R02R03
+        R04R05R07R08R09R11R12R13R14R15R16R17R18R19R20R21R22
+        R24R25R26  0  0  0  0  0  0  0  0  0  0  0  0  0  0
+          0  0  0  0  0  0  0  0  0  0  0  0  0  0  0  0  0
++         8  7  8  9  9  8  8  8  8  7  8  9  9  8  7  8  8
++         8  7  9  9  7  8  8  7  9  9  9  8  9  9 10 10 10
++         7  7  8 10  7  8  8  8  8  8  7  6  9  9  7  8  7
++         7  9 11  0  0  0  0  0  0  0  0  0  0  0  0  0  0
++         0  0  0  0  0  0  0  0  0  0  0  0  0  0  0  0  0
%c M  cc GPS ccc cccc cccc cccc cccc ccccc ccccc ccccc ccccc
%c cc cc ccc ccc cccc cccc cccc cccc ccccc ccccc ccccc ccccc
%f  0.0000000  0.000000000  0.00000000000  0.000000000000000
%f  0.0000000  0.000000000  0.00000000000  0.000000000000000
%i    0    0    0    0      0      0      0      0         0
%i    0    0    0    0      0      0      0      0         0
/* IAC                                ULTRA-RAPID PREDICTION
/* S/V CLOCKS ARE ALIGNED TO GNSS TIME                      
/* G:C1WC2W R:C1PC2P E:C1XC5X C:C2IC6I J:C1CC2S             
/* PCV:IGS20_2247 OL/AL:FES2004  NONE     YN ORB:CoN CLK:CoN
*  2024 07 01 12  0  0.00000000
PG02  15596.527301   -704.238589  21991.748565   -407.423231
PG03  22085.771301 -11339.750783   9106.221508    438.756580
PG04  23241.961741   -869.651104 -12934.983952    394.735960
PG05 -17396.786782  -2253.738780 -20150.550507   -178.238158
PG06  -4911.874639 -26041.571897    -23.620505    187.313323
PG07   7508.797830 -19421.877990 -15692.013284    -79.433309
PG08  26002.780708   5993.088896   2305.162684    255.106988
PG09  14046.030504 -10426.511178 -20084.340354    255.987724
PG10  -4779.627819  19566.547807  17346.088350    -55.387407
PG11 -12100.224666 -19825.752763 -12914.509329   -696.591058
PG12 -22756.180120   8039.543689  10754.241309   -518.677295
PG13 -22246.061352 -14236.090042  -4051.383158    661.659770
PG14   8588.911804 -20645.880592  14204.441727    438.486047
PG15 -26373.278125  -3125.767767   1846.553903    176.216584
PG16  15171.961929   7040.419729 -21057.617747   -248.956994
PG17   -285.832878 -16073.503353  21535.729154    685.698615
PG18  -7221.914616  19980.093121 -15794.367002   -631.630037
PG19 -10442.183057 -17601.291030  16976.548907    504.210385
PG20 -10743.466869 -11054.195035 -21572.201125    373.235490
PG21  16727.837781   6055.816251  20444.942864    111.838075
PG22   1622.176716 -18286.548747  19714.208545    -34.233693
PG23 -14815.066496  20639.781467   7390.613835    263.440368
PG24 -16379.744847  -1689.659775  20483.000453   -480.996320
PG25 -20327.245028  16714.838160   1987.851047    498.039691
PG26   4675.684073  16758.681514 -20128.508464    127.698290
PG27  21896.165114  13188.623426  -8265.598906    -29.957920
PG28   4444.896537  26072.207642   2429.605658   -312.707553
PG29 -17488.265168   6687.238723 -18935.902001   -591.684434
PG30    154.558995 -25418.226660  -7058.190397   -365.208224
PG31  10556.089828  22503.664288  -9004.974983   -227.070657
PG32   3728.192198  16427.595523  20794.517084   -614.217838
PR01 -23811.587951  -2347.119441  -8865.713580     90.034886
PR02 -23583.819409   4830.160178   8383.500204    -23.525812
PR03 -10031.864588  10372.930448  21064.880589    103.060329
PR04   8413.144567   9837.413264  22010.298407    243.521984
PR05  22529.453048   4335.204028  11181.252335    133.927140
PR07   9418.377329 -10420.013163 -21263.977575     85.716951
PR08  -8744.782172  -9792.172127 -21804.325698     -5.489860
PR09  14911.148232 -14054.268319 -15111.296616    195.257303
PR11   1608.893665 -20018.179684  15729.068553     19.611018
PR12 -10430.670025  -3828.070402  22990.692605     41.943747
PR13 -14892.837867  11680.353223  17093.513898    -48.883050
PR14 -10867.251522  23069.065117  -1008.175887     26.646533
PR15   -614.708220  19152.442171 -16817.661886     78.297775
PR16  10179.986281   3957.085001 -23035.102890     26.945344
PR17    494.746315  16977.435751 -19009.911680    100.717325
PR18  11046.365556  22386.602571  -5344.080556    149.744799
PR19  15340.363093  18008.662518   9524.245161   -282.311175
PR20  11489.889078   -433.862977  22776.400307   -115.398594
PR21   -191.574706 -16764.771724  19230.935934   -113.879385
PR22 -10974.633129 -22642.065775   4189.623989     95.248927
PR24 -11572.832837   1741.832385 -22655.911360    -62.048076
PR25    136.339117 -17361.840760  18699.126933    -94.031658
PR26  -7407.839283 -10011.102594 -22245.041167     -5.074670
*  2024 07 01 12 15  0.00000000
PG02  16311.442992   1564.285629  21435.432559   -407.416733
PG03  21321.976537 -10383.485257  11672.264566    438.772077
PG04  24448.900896   -256.378679 -10526.628717    394.743113
PG05 -15838.837184  -3975.086679 -21146.367073   -178.239369
PG06  -4701.463936 -25927.161756   2888.692116    187.293507
PG07   8184.581161 -17518.827527 -17478.532050    -79.425513
PG08  26050.887799   6258.775457   -507.536975    255.122427
PG09  16147.570366  -9739.258694 -18808.401231    256.001042
PG10  -6217.062557  20730.571496  15376.581963    -55.395566
PG11 -12152.353814 -21179.728985 -10499.414219   -696.597711
PG12 -21808.048243   6975.564402  13139.846946   -518.680145
PG13 -21624.932803 -14166.817816  -6825.874128    661.661996
PG14   9872.159349 -21465.148438  11953.898777    438.494152
PG15 -26434.606702  -3449.276406   -947.765414    176.220346
PG16  13337.239328   8541.036609 -21705.254118   -248.947421
PG17   1986.456050 -15288.643638  22035.682706    685.692642
PG18  -7779.852002  18135.573809 -17662.081411   -631.634028
PG19  -8501.957043 -16922.387333  18615.853322    504.215235
PG20  -9254.542604 -13013.123890 -21180.495761    373.235111
PG21  17365.271109   8118.128661  19223.167504    111.835808
PG22   3326.414948 -19495.218380  18283.956893    -34.237961
PG23 -15447.191500  20976.901809   4595.018901    263.448512
PG24 -17068.466866  -3972.311536  19642.006064   -480.998158
PG25 -20234.405069  16196.721994   4801.783056    498.040088
PG26   3073.664005  18316.628313 -19007.639300    127.692332
PG27  20841.268608  13082.631215 -10816.132317    -29.958936
PG28   4086.892985  25713.691279   5240.931751   -312.722267
PG29 -19368.616026   5839.645901 -17323.883629   -591.682709
PG30    697.902557 -24534.623491  -9649.855654   -365.202515
PG31  10460.956228  23405.149874  -6326.720659   -227.070423
PG32   1432.901134  15823.548621  21524.759542   -614.216367
PR01 -22533.761627  -2355.468663 -11736.742788     90.035766
PR02 -24410.081094   5051.561807   5300.741615    -23.526069
PR03 -12514.272814  10654.980598  19532.133623    103.060852
PR04   5657.081227   9991.709722  22807.338880    243.523190
PR05  20976.679332   4289.278452  13891.883646    133.927750
PR07  11946.953377 -10701.055751 -19811.025726     85.717437
PR08  -5992.418066  -9974.966802 -22636.054908     -5.490305
PR09  14061.397170 -12232.969436 -17348.534643    195.259116
PR11   2249.140684 -21688.576028  13234.417464     19.609738
PR12  -9243.081193  -6391.461662  22929.714379     41.944060
PR13 -13903.521902   9678.133245  19063.311573    -48.883470
PR14 -10730.955039  23053.750055   2186.229605     26.646493
PR15  -1346.434079  20945.949037 -14478.600960     78.297417
PR16   8999.544096   6541.169540 -22940.762729     26.945471
PR17   -811.673296  14899.282207 -20672.268916    100.720253
PR18  10739.053300  21567.811835  -8433.921444    149.746441
PR19  16038.909829  18739.812602   6476.771211   -282.312527
PR20  12997.683754   1876.903428  21877.678435   -115.399217
PR21   1104.560410 -14652.012726  20854.126963   -113.882342
PR22 -10719.417209 -21967.962746   7301.051479     95.243798
PR24 -13157.834011   -503.591070 -21839.695627    -62.049533
PR25   1352.445621 -15278.648713  20390.341191    -94.033799
PR26  -4624.949785 -10220.801376 -22890.278794     -5.073682
EOF
